QIANFAN-41              
1 62242U 24232F   25334.61547001  .00000122  00000+0  16994-3 0  9996
2 62242  89.0037  42.4192 0013104 219.0208 140.9999 13.50974606 97613
QIANFAN-42              
1 62243U 24232G   25334.62021817  .00000508  00000+0  21293-3 0  9996
2 62243  89.0027  38.7404 0017159 121.2810 239.0066 14.24470273 99647
QIANFAN-43              
1 62244U 24232H   25334.61129473  .00000131  00000+0  18474-3 0  9992
2 62244  89.0042  42.4844 0014450 225.3582 134.6392 13.50973486 66220
QIANFAN-44              
1 62245U 24232J   25334.59903060  .00000132  00000+0  18550-3 0  9998
2 62245  89.0040  42.2966 0012757 221.3369 138.6818 13.50975860 97699
QIANFAN-45              
1 62246U 24232K   25334.56606729  .00000123  00000+0  17198-3 0  9995
2 62246  89.0044  42.4460 0013418 221.4519 138.5615 13.50975412 97617
QIANFAN-46              
1 62247U 24232L   25334.59078838  .00000145  00000+0  20583-3 0  9999
2 62247  89.0039  42.5130 0013306 227.3316 132.6715 13.50977877 97571
QIANFAN-47              
1 62248U 24232M   25334.59489708  .00000148  00000+0  21080-3 0  9998
2 62248  89.0035  42.4460 0013762 226.5986 133.4020 13.50973949 97601
QIANFAN-48              
1 62249U 24232N   25334.55786016  .00000154  00000+0  21988-3 0  9991
2 62249  89.0040  42.4511 0015928 230.3912 129.5834 13.50975726 97607
